OBJECT_NAME,OBJECT_ID,EPOCH,MEAN_MOTION,ECCENTRICITY,INCLINATION,RA_OF_ASC_NODE,ARG_OF_PERICENTER,MEAN_ANOMALY,EPHEMERIS_TYPE,CLASSIFICATION_TYPE,NORAD_CAT_ID,ELEMENT_SET_NO,REV_AT_EPOCH,BSTAR,MEAN_MOTION_DOT,MEAN_MOTION_DDOT
SIRION PATHFINDER-2,2018-099B,2026-05-09T17:24:24.101280,15.14196358,.0010441,97.4283,179.7014,77.4082,282.8317,0,U,43759,999,40680,.18285E-3,.3277E-4,0
CORVUS BC4,2018-099K,2026-05-09T16:19:22.680768,15.12179714,.000972,97.4099,173.7910,128.4492,231.7612,0,U,43767,999,40658,.1978E-3,.3353E-4,0
M2 PATHFINDER,2020-037E,2026-05-09T11:22:23.468736,15.04507366,.0010398,97.8168,320.2722,285.5873,74.4204,0,U,45727,999,31967,.17096E-3,.2332E-4,0
NETSAT-4,2020-068U,2026-05-09T13:02:11.931360,15.42590515,.000768,97.8626,134.7201,99.2207,260.9908,0,U,46504,999,30981,.29665E-3,.12819E-3,0
NETSAT-3,2020-068V,2026-05-09T12:27:31.053024,15.41358441,.000745,97.8673,132.9615,111.9555,248.2483,0,U,46505,999,30972,.31904E-3,.13237E-3,0
NETSAT-1,2020-068W,2026-05-09T17:14:02.230368,15.33710556,.0006587,97.8759,127.9493,130.4987,229.6829,0,U,46506,999,30940,.28002E-3,.9047E-4,0
NETSAT-2,2020-068X,2026-05-09T18:16:25.741056,15.44381984,.0006116,97.8641,134.7212,119.0690,241.1170,0,U,46507,999,30980,.35131E-3,.16146E-3,0
GREENCUBE (IO-117),2022-080E,2026-05-09T10:20:24.023040,6.42583325,.0008865,70.1440,311.7298,298.7662,61.2107,0,U,53109,999,8957,0,-.3E-7,0
SITRO-AIS 5 (KATYS),2023-091L,2026-05-09T18:49:40.824192,15.28580033,.0010463,97.5079,193.3418,231.8654,128.1643,0,U,57176,999,15847,.31524E-3,.8703E-4,0
SITRO-AIS 6 (CHIRKIN),2023-091AC,2026-05-09T19:23:44.242944,15.25227384,.0010632,97.5088,192.6832,235.8586,124.1644,0,U,57192,999,15843,.17127E-3,.4234E-4,0
SITRO-AIS 8 (ANOKHIN),2023-091AD,2026-05-09T19:13:46.677216,15.31107278,.0009773,97.5075,194.7965,227.0867,132.9555,0,U,57193,999,15857,.33503E-3,.10005E-3,0
SITRO-AIS 7 (FARTUSHNIY),2023-091AE,2026-05-09T19:17:18.542112,15.24934548,.0010459,97.5086,192.5229,237.0253,122.9980,0,U,57194,999,15842,.16617E-3,.4069E-4,0
SITRO-AIS 10 (BURDAEV),2023-091AK,2026-05-09T19:02:53.438784,15.37176692,.0006744,97.5094,199.4607,197.1405,162.9613,0,U,57199,999,15886,.36748E-3,.13309E-3,0
SITRO-AIS 9 (SHCHUKIN),2023-091AM,2026-05-09T19:24:09.152928,15.36723958,.0006947,97.5093,199.2346,197.6845,162.4158,0,U,57201,999,15885,.36917E-3,.13177E-3,0
SITRO-AIS 12 (SMIRENNIY),2023-091AQ,2026-05-09T19:20:57.450336,15.37007247,.0006756,97.5106,199.6758,191.4925,168.6166,0,U,57204,999,15887,.37197E-3,.13399E-3,0
SITRO-AIS 11 (SHEFFER),2023-091AU,2026-05-09T19:54:53.399808,15.37399639,.0006679,97.5103,199.9234,191.1310,168.9788,0,U,57208,999,15889,.36974E-3,.13489E-3,0
SITRO-AIS 25,2024-039R,2026-05-09T20:21:35.159040,14.93242374,.0147639,95.3919,208.7516,102.0361,259.7454,0,U,59066,999,11900,.28383E-3,.3646E-4,0
SITRO-AIS 26,2024-039S,2026-05-09T20:16:08.961888,14.93045252,.0147979,95.3921,208.6544,102.5853,259.1967,0,U,59067,999,11899,.29938E-3,.383E-4,0
SITRO-AIS 27,2024-039T,2026-05-09T19:48:37.864800,14.93453159,.0147,95.3916,208.8953,101.3939,260.3840,0,U,59068,999,11901,.31235E-3,.4031E-4,0
SITRO-AIS 28,2024-039U,2026-05-09T20:53:53.949984,14.93489279,.0146742,95.3922,208.9718,101.0761,260.7006,0,U,59071,999,11902,.26041E-3,.3356E-4,0
GRBBETA,2024-128C,2026-05-09T20:31:14.012256,15.06324716,.0045646,61.9914,350.7223,126.6578,233.8725,0,U,60237,999,10049,.18717E-3,.2607E-4,0
OOV-CUBE (TUBSAT-30),2024-128F,2026-05-09T19:01:49.262592,15.02578804,.0049197,61.9964,359.4324,125.3471,235.2233,0,U,60240,999,10034,.13427E-3,.1624E-4,0
ROBUSTA-3A (MEDITERRANEE),2024-128J,2026-05-09T19:52:04.556064,15.11075626,.0046478,61.9877,343.8335,120.4344,240.1356,0,U,60243,999,10062,.33206E-3,.5503E-4,0
LASARSAT,2024-247Q,2026-05-09T09:05:31.473600,15.44007397,.0004505,44.9740,119.8729,90.2978,269.8427,0,U,62391,999,7731,.56666E-3,.2615E-3,0
CROCUBE,2024-247T,2026-05-09T08:31:23.070432,15.45574819,.0004145,44.9720,117.9132,91.0663,269.0701,0,U,62394,999,7733,.52416E-3,.255E-3,0
FORESAIL-1 PRIME,2025-276DS,2026-05-09T10:44:09.572064,15.18347276,.0001425,97.4205,203.4360,200.9720,159.1456,0,U,66778,999,2452,.17301E-3,.3486E-4,0
KNACKSAT-2,1998-067XZ,2026-05-09T10:06:00.709056,15.56677774,.0012674,51.6279,128.9489,55.0153,305.2027,0,U,67683,999,1423,.48308E-3,.34901E-3,0
