SIRION PATHFINDER-2     
1 43759U 18099B   26129.72527895  .00003277  00000+0  18285-3 0  9995
2 43759  97.4283 179.7014 0010441  77.4082 282.8317 15.14196358406802
CORVUS BC4              
1 43767U 18099K   26129.68012362  .00003353  00000+0  19780-3 0  9993
2 43767  97.4099 173.7910 0009720 128.4492 231.7612 15.12179714406586
M2 PATHFINDER           
1 45727U 20037E   26129.47388274  .00002332  00000+0  17096-3 0  9995
2 45727  97.8168 320.2722 0010398 285.5873  74.4204 15.04507366319677
NETSAT-4                
1 46504U 20068U   26129.54319365  .00012819  00000+0  29665-3 0  9992
2 46504  97.8626 134.7201 0007680  99.2207 260.9908 15.42590515309819
NETSAT-3                
1 46505U 20068V   26129.51910941  .00013237  00000+0  31904-3 0  9991
2 46505  97.8673 132.9615 0007450 111.9555 248.2483 15.41358441309720
NETSAT-1                
1 46506U 20068W   26129.71808137  .00009047  00000+0  28002-3 0  9996
2 46506  97.8759 127.9493 0006587 130.4987 229.6829 15.33710556309401
NETSAT-2                
1 46507U 20068X   26129.76140904  .00016146  00000+0  35131-3 0  9992
2 46507  97.8641 134.7212 0006116 119.0690 241.1170 15.44381984309802
GREENCUBE (IO-117)      
1 53109U 22080E   26129.43083360 -.00000003  00000+0  00000+0 0  9999
2 53109  70.1440 311.7298 0008865 298.7662  61.2107  6.42583325 89578
SITRO-AIS 5 (KATYS)     
1 57176U 23091L   26129.78450028  .00008703  00000+0  31524-3 0  9990
2 57176  97.5079 193.3418 0010463 231.8654 128.1643 15.28580033158472
SITRO-AIS 6 (CHIRKIN)   
1 57192U 23091AC  26129.80815096  .00004234  00000+0  17127-3 0  9999
2 57192  97.5088 192.6832 0010632 235.8586 124.1644 15.25227384158435
SITRO-AIS 8 (ANOKHIN)   
1 57193U 23091AD  26129.80123469  .00010005  00000+0  33503-3 0  9995
2 57193  97.5075 194.7965 0009773 227.0867 132.9555 15.31107278158570
SITRO-AIS 7 (FARTUSHNIY)
1 57194U 23091AE  26129.80368683  .00004069  00000+0  16617-3 0  9995
2 57194  97.5086 192.5229 0010459 237.0253 122.9980 15.24934548158420
SITRO-AIS 10 (BURDAEV)  
1 57199U 23091AK  26129.79367406  .00013309  00000+0  36748-3 0  9994
2 57199  97.5094 199.4607 0006744 197.1405 162.9613 15.37176692158864
SITRO-AIS 9 (SHCHUKIN)  
1 57201U 23091AM  26129.80843927  .00013177  00000+0  36917-3 0  9998
2 57201  97.5093 199.2346 0006947 197.6845 162.4158 15.36723958158853
SITRO-AIS 12 (SMIRENNIY)
1 57204U 23091AQ  26129.80622049  .00013399  00000+0  37197-3 0  9998
2 57204  97.5106 199.6758 0006756 191.4925 168.6166 15.37007247158877
SITRO-AIS 11 (SHEFFER)  
1 57208U 23091AU  26129.82978472  .00013489  00000+0  36974-3 0  9990
2 57208  97.5103 199.9234 0006679 191.1310 168.9788 15.37399639158893
SITRO-AIS 25            
1 59066U 24039R   26129.84832360  .00003646  00000+0  28383-3 0  9993
2 59066  95.3919 208.7516 0147639 102.0361 259.7454 14.93242374119002
SITRO-AIS 26            
1 59067U 24039S   26129.84454817  .00003830  00000+0  29938-3 0  9993
2 59067  95.3921 208.6544 0147979 102.5853 259.1967 14.93045252118990
SITRO-AIS 27            
1 59068U 24039T   26129.82543825  .00004031  00000+0  31235-3 0  9997
2 59068  95.3916 208.8953 0147000 101.3939 260.3840 14.93453159119015
SITRO-AIS 28            
1 59071U 24039U   26129.87076331  .00003356  00000+0  26041-3 0  9997
2 59071  95.3922 208.9718 0146742 101.0761 260.7006 14.93489279119029
GRBBETA                 
1 60237U 24128C   26129.85502329  .00002607  00000+0  18717-3 0  9990
2 60237  61.9914 350.7223 0045646 126.6578 233.8725 15.06324716100491
OOV-CUBE (TUBSAT-30)    
1 60240U 24128F   26129.79293128  .00001624  00000+0  13427-3 0  9992
2 60240  61.9964 359.4324 0049197 125.3471 235.2233 15.02578804100340
ROBUSTA-3A (MEDITERRAN*)
1 60243U 24128J   26129.82783051  .00005503  00000+0  33206-3 0  9995
2 60243  61.9877 343.8335 0046478 120.4344 240.1356 15.11075626100625
LASARSAT                
1 62391U 24247Q   26129.37883650  .00026150  00000+0  56666-3 0  9995
2 62391  44.9740 119.8729 0004505  90.2978 269.8427 15.44007397 77313
CROCUBE                 
1 62394U 24247T   26129.35512813  .00025500  00000+0  52416-3 0  9993
2 62394  44.9720 117.9132 0004145  91.0663 269.0701 15.45574819 77339
FORESAIL-1 PRIME        
1 66778U 25276DS  26129.44733301  .00003486  00000+0  17301-3 0  9996
2 66778  97.4205 203.4360 0001425 200.9720 159.1456 15.18347276 24521
KNACKSAT-2              
1 67683U 98067XZ  26129.42084154  .00034901  00000+0  48308-3 0  9990
2 67683  51.6279 128.9489 0012674  55.0153 305.2027 15.56677774 14236
